#cP2017  5 31  0  0  0.00000000      96 ORBIT IGS14 HLM  IGS
## 1951 259200.00000000   900.00000000 57904 0.0000000000000
+   32   G01G02G03G04G05G06G07G08G09G10G11G12G13G14G15G16G17
+        G18G19G20G21G22G23G24G25G26G27G28G29G30G31G32  0  0
+          0  0  0  0  0  0  0  0  0  0  0  0  0  0  0  0  0
+          0  0  0  0  0  0  0  0  0  0  0  0  0  0  0  0  0
+          0  0  0  0  0  0  0  0  0  0  0  0  0  0  0  0  0
++         2  2  2  0  2  2  2  2  2  2  2  2  2  2  2  2  2
++         2  3  2  2  2  2  2  2  2  2  2  3  2  2  2  0  0
++         0  0  0  0  0  0  0  0  0  0  0  0  0  0  0  0  0
++         0  0  0  0  0  0  0  0  0  0  0  0  0  0  0  0  0
++         0  0  0  0  0  0  0  0  0  0  0  0  0  0  0  0  0
%c G  cc GPS ccc cccc cccc cccc cccc ccccc ccccc ccccc ccccc
%c cc cc ccc ccc cccc cccc cccc cccc ccccc ccccc ccccc ccccc
%f  1.2500000  1.025000000  0.00000000000  0.000000000000000
%f  0.0000000  0.000000000  0.00000000000  0.000000000000000
%i    0    0    0    0      0      0      0      0         0
%i    0    0    0    0      0      0      0      0         0
/* RAPID ORBIT COMBINATION FROM WEIGHTED AVERAGE OF:        
/* cod emr esa gfz jpl ngs sio usn whu                      
/* REFERENCED TO IGS TIME (IGST) AND TO WEIGHTED MEAN POLE: 
/* PCV:IGS14_1930 OL/AL:FES2004  NONE     Y  ORB:CMB CLK:CMB
*  2017  5 31 22 30  0.00000000
PG01  19642.484739   9195.269170  15403.813748     55.369785  6  5  6 126       
PG02 -14575.580113 -22213.485735   3481.416879    408.074032 10  8  9 125       
PG03  16745.659173  -2279.447901  20480.986727    -97.531649  7  7  5 107       
PG04   8661.379839  24851.831142   5812.646803 999999.999999
PG05  -6522.475508 -18171.964906 -18234.918332    -43.478864  7  5  7 124       
PG06  -2296.181162 -21385.827291  15593.452444    358.323357  8  5  5  92       
PG07  14701.093420  -4979.733188 -21422.445174    345.071308  7  5  5 127       
PG08  22011.125146   6718.533761 -13293.072064    -61.620945 11  6  9 110       
PG09  23929.068656  -8400.448115  -7934.450835    375.070576  4  5  6 117       
PG10 -10376.457913  24376.210073    550.372713    -38.553103  3  7  6  74       
PG11  24028.224552   9337.567338   5695.936292   -692.075355  6  6  7 132       
PG12 -14091.005379  -4181.304590  21945.444042    382.400519  9  7  7 110       
PG13 -15658.994909 -12307.541728 -17663.654437    -83.793677  7  7  5 123       
PG14  -1521.749734  15313.949257  21913.092102    -72.754952  5  4  5 113       
PG15 -24703.930875  -3142.497163  -9913.527271   -350.928169  9  8  6 118       
PG16   3701.613863  18654.229826 -18491.779312     34.184176  8  6  5 103       
PG17  11641.192676 -13891.121715  19718.115389   -176.964462  7  4  4 127       
PG18 -14465.783351  20452.380086  -7934.714792    618.071715  4  7  6 115       
PG19   3486.505210 -14624.350640  21645.123031   -501.531927  5  5  7 117       
PG20 -15860.888896  -2899.161243 -21249.888702    474.387296  9  8  5 112       
PG21 -10464.508878  11321.678780 -20840.679043   -503.699037  3  7  2 135       
PG22  14051.632870   8179.322388  21248.752596     -7.910508  7  7  5 114       
PG23  26624.656119   -632.205689   3243.037761   -212.786137  9  6  4 119       
PG24 -20442.779050 -10974.969257  13054.418318    -35.582287 11  8  9  97       
PG25 -17268.869172  11129.256934  16558.089538   -396.929354  5  5  2  97       
PG26  -2761.980027  24352.668238 -10132.407777   -497.451800  7  6  6  96       
PG27  11557.029335  12658.332529 -20402.494950    267.571185  7  5  8 103       
PG28  13589.132269 -22718.969650  -1499.693872    617.282710  7 10  8  94       
PG29 -25527.238452   4821.984134  -5455.216788    599.286017  9  5  7  99       
PG30   5703.078583 -17076.184518 -19487.293136    155.338801  8  8  7 112       
PG31   3249.769705  22121.953161  14095.093797    197.580844  4  5  5 114       
PG32  -9860.623562  14962.577208  19610.126419   -428.666739  6  3  6  90       
*  2017  5 31 22 45  0.00000000
PG01  20514.183969  10601.265895  13252.488566     55.370228  6  5  7 131       
PG02 -14057.259110 -22005.935743   6218.821520    408.067008 10  7  9 125       
PG03  15908.779983    -39.937244  21262.958495    -97.529672  6  7  6  80       
PG04   8177.024785  24247.634568   8530.158163 999999.999999
PG05  -5631.267266 -19957.707468 -16563.137602    -43.477344  7  4  7 127       
PG06  -1012.601348 -19993.875774  17468.085400    358.327881  8  6  5  88       
PG07  16127.924801  -2992.907503 -20799.835923    345.067145  8  6  6 123       
PG08  20406.454573   7131.475219 -15446.053153    -61.622097 10  4  9  81       
PG09  24710.372294  -8251.259761  -5228.514941    375.077781  4  6  7 116       
PG10 -10585.520955  24179.365796  -2307.564354    -38.543366  1  7  6  69       
PG11  24313.012480   9985.101806   3021.754834   -692.077692  6  5  6 133       
PG12 -13007.083563  -6486.763634  22070.776105    382.399595  9  7  7 115       
PG13 -13573.563296 -12473.675665 -19218.621031    -83.795079  7  7  5 131       
PG14  -3947.338394  15419.696714  21513.062059    -72.755966  5  5  6 119       
PG15 -23543.761650  -3658.767994 -12280.217767   -350.928833  9  8  6  99       
PG16   2696.630539  20386.582011 -16704.882790     34.185012  7  6  5 112       
PG17  13745.226049 -13975.064427  18206.153414   -176.962906  6  5  4 129       
PG18 -14411.187337  19264.895736 -10446.616181    618.073289  4  7  6 108       
PG19   5980.604402 -14693.009451  21076.847512   -501.530541  5  5  7 127       
PG20 -15175.495167  -5217.582159 -21308.490774    474.388558 10  7  5 113       
PG21 -12124.407970   9367.276005 -20918.553545   -503.696768  4  7  2 134       
PG22  13203.779678  10392.890276  20810.513522     -7.921461  7  7  6 120       
PG23  26172.033670   -304.849615   5976.068753   -212.786748  8  5  4 114       
PG24 -21134.707055 -12177.033114  10711.875611    -35.582000 11  8  8  78       
PG25 -16629.179816   9201.513322  18307.744288   -396.935240  6  5  1 100       
PG26  -3360.317648  25204.949041  -7523.320423   -497.447335  7  6  6  81       
PG27   9221.685622  13047.646670 -21309.118052    267.577278  6  4  8  96       
PG28  13566.584520 -22275.277277  -4383.763028    617.285819  7 10  8 113       
PG29 -26000.896481   4663.168395  -2606.029514    599.282970 10  4  7  92       
PG30   7093.828961 -15245.300358 -20533.653830    155.337818  8  8  7 117       
PG31   2075.450873  20831.642406  16176.224607    197.578887  5  5  5 117       
PG32 -12019.437866  15142.027086  18212.473356   -428.675578  6  3  6 100       
*  2017  5 31 23  0  0.00000000
PG01  21291.963076  11763.120195  10874.708062     55.370717  6  5  7 130       
PG02 -13324.897185 -21607.881678   8852.567089    408.059850 10  7  8 133       
PG03  15167.356671   2303.822946  21678.877287    -97.527694  6  7  6  97       
PG04   7499.530568  23425.159586  11107.500537 999999.999999
PG05  -4891.810308 -21591.811731 -14605.677847    -43.475900  7  3  8 131       
PG06    472.029611 -18525.737989  19042.421436    358.332438  9  7  4  91       
PG07  17595.318792  -1157.166936 -19816.455664    345.063136  8  6  7 131       
PG08  18601.240480   7676.433902 -17333.450020    -61.623522 10  2  8  92       
PG09  25193.828461  -8078.679533  -2432.700658    375.085010  5  7  7 121       
PG10 -10701.591044  23688.190065  -5125.492290    -38.533624     8  6  89       
PG11  24353.570691  10480.155087    294.900195   -692.080096  6  5  6 136       
PG12 -12057.842472  -8840.327638  21810.593304    382.399037  9  6  8 121       
PG13 -11344.496849 -12763.830345 -20445.491967    -83.796546  8  7  5 130       
PG14  -6301.567189  15646.209286  20751.120398    -72.757211  5  5  7 113       
PG15 -22166.004438  -4296.240950 -14441.280867   -350.929400  9  8  6 115       
PG16   1874.571194  21972.817093 -14628.386819     34.185278  7  6  6 116       
PG17  15659.745602 -14147.617774  16387.602061   -176.961281  7  6  4 129       
PG18 -14334.593820  17807.025418 -12771.804951    618.075022  4  7  7 118       
PG19   8377.976650 -14888.014102  20138.423928   -501.529215  5  5  8 132       
PG20 -14603.134212  -7552.380712 -21005.153382    474.389640 10  7  5 113       
PG21 -13862.991648   7503.109900 -20609.658362   -503.694984  4  8  3 137       
PG22  12479.167986  12579.185534  20021.637878     -7.932288  7  7  6 120       
PG23  25443.663374    103.910490   8609.512667   -212.787312  8  4  4 121       
PG24 -21698.995292 -13140.985548   8186.614707    -35.583235 10  8  8 100       
PG25 -16035.665486   7070.666927  19736.201394   -396.941109  7  6     85       
PG26  -3819.881992  25798.763620  -4784.127116   -497.442751  7  6  6  92       
PG27   6829.104079  13580.897756 -21852.099588    267.583347  6  4  9  87       
PG28  13443.780712 -21529.103820  -7191.347741    617.288600  7 10  9 113       
PG29 -26159.638835   4485.473228    288.093684    599.280055 10  4  7  77       
PG30   8633.611177 -13409.355155 -21225.888283    155.336823  9  8  7 124       
PG31    697.295099  19435.535833  17975.713347    197.576832  5  5  5 106       
PG32 -13994.293261  15397.415050  16501.418972   -428.684435  6  4  6 111       
EOF
